[{"OBJECT_NAME":"MAKERSAT 0","OBJECT_ID":"2017-073D","EPOCH":"2026-03-09T15:16:53.554944","MEAN_MOTION":15.27797199,"ECCENTRICITY":0.0115258,"INCLINATION":97.4777,"RA_OF_ASC_NODE":310.6155,"ARG_OF_PERICENTER":266.0743,"MEAN_ANOMALY":92.7313,"EPHEMERIS_TYPE":0,"CLASSIFICATION_TYPE":"U","NORAD_CAT_ID":43016,"ELEMENT_SET_NO":999,"REV_AT_EPOCH":45124,"BSTAR":0.0007159,"MEAN_MOTION_DOT":0.00023659,"MEAN_MOTION_DDOT":0},{"OBJECT_NAME":"STARLINK-30356","OBJECT_ID":"2023-131S","EPOCH":"2026-03-09T22:00:01.999584","MEAN_MOTION":15.14540357,"ECCENTRICITY":0.00012469,"INCLINATION":42.9999,"RA_OF_ASC_NODE":169.9073,"ARG_OF_PERICENTER":308.0493,"MEAN_ANOMALY":135.3712,"EPHEMERIS_TYPE":0,"CLASSIFICATION_TYPE":"U","NORAD_CAT_ID":57748,"ELEMENT_SET_NO":999,"REV_AT_EPOCH":572,"BSTAR":0.002799611,"MEAN_MOTION_DOT":0.00052692,"MEAN_MOTION_DDOT":0}]
